{"fetched_at":"2026-03-29T02:12:04Z","count":15717,"tles":[{"name":"STARLINK-35518","line1":"1 66197U 25243X   26087.56934566  .00018748  00000+0  64354-3 0  9994","line2":"2 66197  53.1579 157.6080 0001114  80.0843 280.0284 15.30199451 23544","category":"Starlink"}]}